[{"OBJECT_NAME":"GAOFEN-9 05","OBJECT_ID":"2020-058A","EPOCH":"2026-03-10T00:01:50.876256","MEAN_MOTION":15.30293976,"ECCENTRICITY":0.0010522,"INCLINATION":97.2228,"RA_OF_ASC_NODE":111.963,"ARG_OF_PERICENTER":91.0204,"MEAN_ANOMALY":269.2242,"EPHEMERIS_TYPE":0,"CLASSIFICATION_TYPE":"U","NORAD_CAT_ID":46232,"ELEMENT_SET_NO":999,"REV_AT_EPOCH":30843,"BSTAR":0.00025120304,"MEAN_MOTION_DOT":7.299e-5,"MEAN_MOTION_DDOT":0},{"OBJECT_NAME":"STARLINK-33617","OBJECT_ID":"2025-063L","EPOCH":"2026-03-09T22:26:27.259008","MEAN_MOTION":15.30210335,"ECCENTRICITY":0.0001352,"INCLINATION":53.161,"RA_OF_ASC_NODE":48.7184,"ARG_OF_PERICENTER":86.2246,"MEAN_ANOMALY":273.891,"EPHEMERIS_TYPE":0,"CLASSIFICATION_TYPE":"U","NORAD_CAT_ID":63373,"ELEMENT_SET_NO":999,"REV_AT_EPOCH":5478,"BSTAR":0.00090915593,"MEAN_MOTION_DOT":0.00026673,"MEAN_MOTION_DDOT":0}]
